GOMX-4A                 
1 43197U 18015F   19086.30835032  .00000324  00000-0  16301-4 0  9991
2 43197  97.3780 215.1188 0017467 238.8531 175.3805 15.23939753 63657
1KUNS-PF                
1 43466U 98067NP  19086.24714406  .00018181  00000-0  20172-3 0  9999
2 43466  51.6391  37.0346 0001726 105.6572 254.4612 15.63003197 49850
UBAKUSAT                
1 43467U 98067NQ  19086.29818310  .00011194  00000-0  13773-3 0  9990
2 43467  51.6389  38.8701 0003445 105.2978 254.8396 15.60782808 49840
BATSU-CS1 (IRAZU)       
1 43468U 98067NR  19086.10258857  .00023274  00000-0  23968-3 0  9994
2 43468  51.6386  36.0615 0001841 103.2914 256.8286 15.64730328149843
CUBERRT                 
1 43546U 98067NU  19086.13841328  .00012583  00000-0  15065-3 0  9995
2 43546  51.6393  41.5459 0005321 164.0068 196.1095 15.61361412 39929
TEMPEST-D               
1 43547U 98067NV  19085.47859791  .00004054  00000-0  61972-4 0  9998
2 43547  51.6396  48.3850 0005793 161.2697 198.8509 15.56932540 39450
RAINCUBE                
1 43548U 98067NW  19086.47328321  .00012118  00000-0  15673-3 0  9996
2 43548  51.6383  41.5254 0005569 170.6909 189.4188 15.59360163 40080
HALOSAT                 
1 43549U 98067NX  19086.34616361  .00011418  00000-0  14832-3 0  9995
2 43549  51.6387  42.1811 0005289 173.9686 186.1371 15.59313030 39625
ENDUROSAT ONE           
1 43551U 98067NZ  19086.11733826  .00013530  00000-0  16757-3 0  9994
2 43551  51.6395  42.1563 0005623 179.4755 180.6245 15.60390562 40012
EQUISAT                 
1 43552U 98067PA  19086.17188920  .00011767  00000-0  15092-3 0  9991
2 43552  51.6402  42.5291 0005984 180.8200 179.2784 15.59613909 39971
AEROCUBE 12A            
1 43556U 18046C   19086.22984974  .00002023  00000-0  84713-4 0  9995
2 43556  51.6422  96.9286 0008739 129.8002 230.3748 15.28430114 38797
AEROCUBE 12B            
1 43557U 18046D   19085.58332168  .00001701  00000-0  73475-4 0  9991
2 43557  51.6418 100.1106 0008852 127.9857 232.1923 15.28331998 38644
UITMSAT-1               
1 43589U 98067PD  19085.34157809  .00014263  00000-0  18255-3 0  9999
2 43589  51.6376  47.4579 0005104 184.3335 175.7615 15.59468532 35572
MAYA-1                  
1 43590U 98067PE  19086.04268693  .00012360  00000-0  15886-3 0  9996
2 43590  51.6376  43.8927 0005357 188.0579 172.0329 15.59505813 35613
BHUTAN-1                
1 43591U 98067PF  19086.29256596  .00013485  00000-0  17232-3 0  9999
2 43591  51.6393  42.5709 0005310 189.5417 170.5476 15.59566235 35658
SIRIUSSAT-1             
1 43595U 98067PG  19085.85547046  .00011493  00000-0  15162-3 0  9994
2 43595  51.6378  45.6403 0004021 138.1360 221.9941 15.58896152 34756
SIRIUSSAT-2             
1 43596U 98067PH  19086.13358357  .00012191  00000-0  16134-3 0  9998
2 43596  51.6389  44.5211 0004560 142.0949 218.0365 15.58742820 34792
TANUSHA-3               
1 43597U 98067PJ  19085.87797869  .00015301  00000-0  19380-3 0  9996
2 43597  51.6375  45.0203 0003819 149.6831 210.4383 15.59685457 34760
SURFSAT                 
1 43614U 18070B   19086.14835791  .00002216  00000-0  61097-4 0  9994
2 43614  93.0334 329.1897 0013542 268.6435  91.3267 15.37130893 29571
CP7 (DAVE)              
1 43615U 18070C   19086.15051804  .00002088  00000-0  57666-4 0  9995
2 43615  93.0338 329.1918 0013613 268.1808  91.7886 15.37079258 29576
ELFIN-B                 
1 43616U 18070D   19086.12197509  .00003286  00000-0  89345-4 0  9996
2 43616  93.0294 329.1090 0014405 272.2301  87.7302 15.37510024 29572
ELFIN-A                 
1 43617U 18070E   19086.18279033  .00003229  00000-0  87768-4 0  9990
2 43617  93.0348 329.2841 0013464 268.2455  91.7256 15.37540435 29580
CUBEBEL-1 (BSUSAT-1)    
1 43666U 18083E   19086.47880193  .00000910  00000-0  48854-4 0  9992
2 43666  97.5273 111.4996 0016854 114.0552  25.7569 15.17383850 22664
DEBRISSAT-2             
1 43680U 98067PR  19085.94713016  .00015622  00000-0  19693-3 0  9992
2 43680  51.6395  44.7507 0003297 158.0411 202.0717 15.59792814 43513
CICERO 10               
1 43690U 18088A   19085.92912149  .00001224  00000-0  55660-4 0  9992
2 43690  85.0418  13.6411 0016263 147.2321 212.9932 15.19483608 20638
IRVINE01                
1 43693U 18088D   19086.53264681  .00002362  00000-0  10422-3 0  9994
2 43693  85.0393  13.0149 0020166 132.9660 227.3277 15.20996461 20729
PROXIMA I               
1 43694U 18088E   19085.90479360  .00001018  00000-0  43553-4 0  9996
2 43694  85.0362  13.3095 0021352 127.8495 232.4683 15.21223771 20643
PROXIMA II              
1 43696U 18088G   19085.90424592  .00001016  00000-0  43423-4 0  9999
2 43696  85.0363  13.3104 0021386 127.8249 232.4933 15.21229319 20632
FACSAT-1                
1 43721U 18096C   19086.46634024  .00001491  00000-0  60699-4 0  9993
2 43721  97.4674 156.4488 0016574 262.4307  97.5048 15.26009673 18044
CENTAURI-2              
1 43722U 18096D   19086.52298325  .00001753  00000-0  70501-4 0  9995
2 43722  97.4671 156.5257 0016716 262.8920  97.0417 15.26174521 18040
SIRION PATHFINDER-2     
1 43759U 18099B   19086.52952032  .00000148  00000-0  18777-4 0  9994
2 43759  97.7516 159.5066 0013203 234.3715 125.6277 14.95084843 16992
CORVUS-BC 4             
1 43767U 18099K   19085.90211797 -.00000034  00000-0  22117-5 0  9999
2 43767  97.7507 158.7676 0010510 239.3351 120.6834 14.94532415 16905
SHIELDS 1               
1 43850U 18104B   19086.48994908  .00000041  00000-0  00000+0 0  9993
2 43850  85.0272 111.4477 0012461 277.3275  82.6557 15.20998775 15370
STF-1                   
1 43852U 18104D   19086.07169395  .00000040  00000-0  00000+0 0  9993
2 43852  85.0323 111.8502 0012833 296.9484  63.0503 15.20414685 15304
LUME 1                  
1 43908U 18111AJ  19086.49202335  .00001104  00000-0  48073-4 0  9990
2 43908  97.2956 353.9918 0020121 286.7763  73.1267 15.24143482 13775
AOBA VELOX-IV           
1 43940U 19003J   19086.41277894  .00001497  00000-0  65205-4 0  9992
2 43940  97.2861 146.7618 0024886  10.4667 112.6614 15.23473705 10403
CATSAT-2                
1 44029U 98067PV  19085.90715925  .00009780  00000-0  15139-3 0  9996
2 44029  51.6403  49.7488 0004579 185.8993 174.1945 15.54742143  8531
DELPHINI                
1 44030U 98067PW  19086.09917682  .00010714  00000-0  16479-3 0  9990
2 44030  51.6397  48.7794 0004290 182.3523 177.7449 15.54801254  8532
UNITE                   
1 44031U 98067PX  19085.46017012  .00007423  00000-0  11763-3 0  9993
2 44031  51.6401  52.0113 0003135 173.6237 186.4794 15.54512595  8430
TECHEDSAT 8             
1 44032U 98067PY  19085.88711494  .00020042  00000-0  29033-3 0  9996
2 44032  51.6395  49.6135 0003183 163.9241 196.1852 15.55855669  8480
CATSAT-1                
1 44033U 98067PZ  19086.09989508  .00010373  00000-0  16015-3 0  9996
2 44033  51.6404  48.7862 0004452 186.6225 173.4708 15.54736978  8470
